CCSDS_OMM_VERS = 2.0
CREATION_DATE  = 
ORIGINATOR     = 

OBJECT_NAME    = STARLINK-36570
OBJECT_ID      = 2026-020Z
CENTER_NAME    = EARTH
REF_FRAME      = TEME
TIME_SYSTEM    = UTC
MEAN_ELEMENT_THEORY = SGP/SGP4

EPOCH          = 2026-02-15T20:00:00.999360
MEAN_MOTION    = 15.76291804
ECCENTRICITY   = .0001763
INCLINATION    = 42.9979
RA_OF_ASC_NODE = 274.7771
ARG_OF_PERICENTER = 269.3109
MEAN_ANOMALY   = 289.1956

EPHEMERIS_TYPE = 0
CLASSIFICATION_TYPE = U
NORAD_CAT_ID   = 67640
ELEMENT_SET_NO = 999
REV_AT_EPOCH   = 387
BSTAR          = .39392E-3
MEAN_MOTION_DOT = .63932E-3
MEAN_MOTION_DDOT = 0

CCSDS_OMM_VERS = 2.0
CREATION_DATE  = 
ORIGINATOR     = 

OBJECT_NAME    = STARLINK-36514
OBJECT_ID      = 2026-020AA
CENTER_NAME    = EARTH
REF_FRAME      = TEME
TIME_SYSTEM    = UTC
MEAN_ELEMENT_THEORY = SGP/SGP4

EPOCH          = 2026-02-15T15:46:43.283424
MEAN_MOTION    = 15.82156606
ECCENTRICITY   = .00021
INCLINATION    = 42.9962
RA_OF_ASC_NODE = 275.6412
ARG_OF_PERICENTER = 224.9492
MEAN_ANOMALY   = 135.1210

EPHEMERIS_TYPE = 0
CLASSIFICATION_TYPE = U
NORAD_CAT_ID   = 67641
ELEMENT_SET_NO = 999
REV_AT_EPOCH   = 261
BSTAR          = .19204E-2
MEAN_MOTION_DOT = .427248E-2
MEAN_MOTION_DDOT = 0

CCSDS_OMM_VERS = 2.0
CREATION_DATE  = 
ORIGINATOR     = 

OBJECT_NAME    = STARLINK-36556
OBJECT_ID      = 2026-020AB
CENTER_NAME    = EARTH
REF_FRAME      = TEME
TIME_SYSTEM    = UTC
MEAN_ELEMENT_THEORY = SGP/SGP4

EPOCH          = 2026-02-14T21:35:48.513120
MEAN_MOTION    = 15.81195695
ECCENTRICITY   = .00009655
INCLINATION    = 42.9973
RA_OF_ASC_NODE = 280.2837
ARG_OF_PERICENTER = 131.0329
MEAN_ANOMALY   = 229.0626

EPHEMERIS_TYPE = 0
CLASSIFICATION_TYPE = U
NORAD_CAT_ID   = 67642
ELEMENT_SET_NO = 999
REV_AT_EPOCH   = 249
BSTAR          = .20882971E-2
MEAN_MOTION_DOT = .44532E-2
MEAN_MOTION_DDOT = 0

CCSDS_OMM_VERS = 2.0
CREATION_DATE  = 
ORIGINATOR     = 

OBJECT_NAME    = STARLINK-36533
OBJECT_ID      = 2026-020AC
CENTER_NAME    = EARTH
REF_FRAME      = TEME
TIME_SYSTEM    = UTC
MEAN_ELEMENT_THEORY = SGP/SGP4

EPOCH          = 2026-02-15T16:10:23.435040
MEAN_MOTION    = 15.76461582
ECCENTRICITY   = .0001706
INCLINATION    = 42.9973
RA_OF_ASC_NODE = 275.7747
ARG_OF_PERICENTER = 260.4529
MEAN_ANOMALY   = 99.6148

EPHEMERIS_TYPE = 0
CLASSIFICATION_TYPE = U
NORAD_CAT_ID   = 67643
ELEMENT_SET_NO = 999
REV_AT_EPOCH   = 261
BSTAR          = .86776E-3
MEAN_MOTION_DOT = .143846E-2
MEAN_MOTION_DDOT = 0

CCSDS_OMM_VERS = 2.0
CREATION_DATE  = 
ORIGINATOR     = 

OBJECT_NAME    = STARLINK-36623
OBJECT_ID      = 2026-020AD
CENTER_NAME    = EARTH
REF_FRAME      = TEME
TIME_SYSTEM    = UTC
MEAN_ELEMENT_THEORY = SGP/SGP4

EPOCH          = 2026-02-15T20:00:00.999360
MEAN_MOTION    = 15.76315504
ECCENTRICITY   = .0001616
INCLINATION    = 42.9980
RA_OF_ASC_NODE = 274.7139
ARG_OF_PERICENTER = 263.1424
MEAN_ANOMALY   = 320.2104

EPHEMERIS_TYPE = 0
CLASSIFICATION_TYPE = U
NORAD_CAT_ID   = 67644
ELEMENT_SET_NO = 999
REV_AT_EPOCH   = 387
BSTAR          = .44041E-3
MEAN_MOTION_DOT = .71676E-3
MEAN_MOTION_DDOT = 0

CCSDS_OMM_VERS = 2.0
CREATION_DATE  = 
ORIGINATOR     = 

OBJECT_NAME    = STARLINK-36619
OBJECT_ID      = 2026-020AE
CENTER_NAME    = EARTH
REF_FRAME      = TEME
TIME_SYSTEM    = UTC
MEAN_ELEMENT_THEORY = SGP/SGP4

EPOCH          = 2026-02-15T20:00:00.999360
MEAN_MOTION    = 15.76283631
ECCENTRICITY   = .0001667
INCLINATION    = 42.9980
RA_OF_ASC_NODE = 274.6825
ARG_OF_PERICENTER = 267.6047
MEAN_ANOMALY   = 328.2433

EPHEMERIS_TYPE = 0
CLASSIFICATION_TYPE = U
NORAD_CAT_ID   = 67645
ELEMENT_SET_NO = 999
REV_AT_EPOCH   = 387
BSTAR          = .25978E-3
MEAN_MOTION_DOT = .41869E-3
MEAN_MOTION_DDOT = 0

CCSDS_OMM_VERS = 2.0
CREATION_DATE  = 
ORIGINATOR     = 

OBJECT_NAME    = ALSAT-3B
OBJECT_ID      = 2026-021A
CENTER_NAME    = EARTH
REF_FRAME      = TEME
TIME_SYSTEM    = UTC
MEAN_ELEMENT_THEORY = SGP/SGP4

EPOCH          = 2026-02-15T18:39:56.196000
MEAN_MOTION    = 15.23610690
ECCENTRICITY   = .001207
INCLINATION    = 97.4717
RA_OF_ASC_NODE = 121.2091
ARG_OF_PERICENTER = 206.5493
MEAN_ANOMALY   = 153.5127

EPHEMERIS_TYPE = 0
CLASSIFICATION_TYPE = U
NORAD_CAT_ID   = 67646
ELEMENT_SET_NO = 999
REV_AT_EPOCH   = 238
BSTAR          = .32738E-3
MEAN_MOTION_DOT = .7783E-4
MEAN_MOTION_DDOT = 0

CCSDS_OMM_VERS = 2.0
CREATION_DATE  = 
ORIGINATOR     = 

OBJECT_NAME    = CZ-2C R/B
OBJECT_ID      = 2026-021B
CENTER_NAME    = EARTH
REF_FRAME      = TEME
TIME_SYSTEM    = UTC
MEAN_ELEMENT_THEORY = SGP/SGP4

EPOCH          = 2026-02-15T18:44:18.698208
MEAN_MOTION    = 15.23485155
ECCENTRICITY   = .0153611
INCLINATION    = 97.6557
RA_OF_ASC_NODE = 121.8084
ARG_OF_PERICENTER = 87.3790
MEAN_ANOMALY   = 274.5019

EPHEMERIS_TYPE = 0
CLASSIFICATION_TYPE = U
NORAD_CAT_ID   = 67647
ELEMENT_SET_NO = 999
REV_AT_EPOCH   = 236
BSTAR          = .44418E-3
MEAN_MOTION_DOT = .14726E-3
MEAN_MOTION_DDOT = 0

CCSDS_OMM_VERS = 2.0
CREATION_DATE  = 
ORIGINATOR     = 

OBJECT_NAME    = STARLINK-36719
OBJECT_ID      = 2026-022A
CENTER_NAME    = EARTH
REF_FRAME      = TEME
TIME_SYSTEM    = UTC
MEAN_ELEMENT_THEORY = SGP/SGP4

EPOCH          = 2026-02-15T20:00:00.999360
MEAN_MOTION    = 15.75174429
ECCENTRICITY   = .0001513
INCLINATION    = 97.2840
RA_OF_ASC_NODE = 79.7214
ARG_OF_PERICENTER = 78.6488
MEAN_ANOMALY   = 58.4011

EPHEMERIS_TYPE = 0
CLASSIFICATION_TYPE = U
NORAD_CAT_ID   = 67648
ELEMENT_SET_NO = 999
REV_AT_EPOCH   = 338
BSTAR          = -.65168E-4
MEAN_MOTION_DOT = -.9832E-4
MEAN_MOTION_DDOT = 0

CCSDS_OMM_VERS = 2.0
CREATION_DATE  = 
ORIGINATOR     = 

OBJECT_NAME    = STARLINK-36342
OBJECT_ID      = 2026-022B
CENTER_NAME    = EARTH
REF_FRAME      = TEME
TIME_SYSTEM    = UTC
MEAN_ELEMENT_THEORY = SGP/SGP4

EPOCH          = 2026-02-15T20:00:00.999360
MEAN_MOTION    = 15.75165897
ECCENTRICITY   = .0001139
INCLINATION    = 97.2841
RA_OF_ASC_NODE = 79.7226
ARG_OF_PERICENTER = 88.5873
MEAN_ANOMALY   = 52.4651

EPHEMERIS_TYPE = 0
CLASSIFICATION_TYPE = U
NORAD_CAT_ID   = 67649
ELEMENT_SET_NO = 999
REV_AT_EPOCH   = 338
BSTAR          = .64795E-4
MEAN_MOTION_DOT = .9536E-4
MEAN_MOTION_DDOT = 0

CCSDS_OMM_VERS = 2.0
CREATION_DATE  = 
ORIGINATOR     = 

OBJECT_NAME    = STARLINK-36703
OBJECT_ID      = 2026-022C
CENTER_NAME    = EARTH
REF_FRAME      = TEME
TIME_SYSTEM    = UTC
MEAN_ELEMENT_THEORY = SGP/SGP4

EPOCH          = 2026-02-15T20:00:00.999360
MEAN_MOTION    = 15.75153285
ECCENTRICITY   = .0001658
INCLINATION    = 97.2838
RA_OF_ASC_NODE = 79.7246
ARG_OF_PERICENTER = 87.2061
MEAN_ANOMALY   = 59.8509

EPHEMERIS_TYPE = 0
CLASSIFICATION_TYPE = U
NORAD_CAT_ID   = 67650
ELEMENT_SET_NO = 999
REV_AT_EPOCH   = 338
BSTAR          = .17382E-3
MEAN_MOTION_DOT = .25834E-3
MEAN_MOTION_DDOT = 0

CCSDS_OMM_VERS = 2.0
CREATION_DATE  = 
ORIGINATOR     = 

OBJECT_NAME    = STARLINK-36696
OBJECT_ID      = 2026-022D
CENTER_NAME    = EARTH
REF_FRAME      = TEME
TIME_SYSTEM    = UTC
MEAN_ELEMENT_THEORY = SGP/SGP4

EPOCH          = 2026-02-15T20:00:00.999360
MEAN_MOTION    = 15.75182093
ECCENTRICITY   = .0001803
INCLINATION    = 97.2835
RA_OF_ASC_NODE = 79.7294
ARG_OF_PERICENTER = 82.8232
MEAN_ANOMALY   = 74.2294

EPHEMERIS_TYPE = 0
CLASSIFICATION_TYPE = U
NORAD_CAT_ID   = 67651
ELEMENT_SET_NO = 999
REV_AT_EPOCH   = 338
BSTAR          = -.23508E-3
MEAN_MOTION_DOT = -.3504E-3
MEAN_MOTION_DDOT = 0

