STARLINK-36570          
1 67640U 26020Z   26046.83334490  .00063932  00000+0  39392-3 0  9996
2 67640  42.9979 274.7771 0001763 269.3109 289.1956 15.76291804  3878
STARLINK-36514          
1 67641U 26020AA  26046.65744541  .00427248  00000+0  19204-2 0  9992
2 67641  42.9962 275.6412 0002100 224.9492 135.1210 15.82156606  2612
STARLINK-36556          
1 67642U 26020AB  26045.89986705  .00445320  00000+0  20883-2 0  9994
2 67642  42.9973 280.2837 0000965 131.0329 229.0626 15.81195695  2492
STARLINK-36533          
1 67643U 26020AC  26046.67388235  .00143846  00000+0  86776-3 0  9998
2 67643  42.9973 275.7747 0001706 260.4529  99.6148 15.76461582  2614
STARLINK-36623          
1 67644U 26020AD  26046.83334490  .00071676  00000+0  44041-3 0  9991
2 67644  42.9980 274.7139 0001616 263.1424 320.2104 15.76315504  3877
STARLINK-36619          
1 67645U 26020AE  26046.83334490  .00041869  00000+0  25978-3 0  9991
2 67645  42.9980 274.6825 0001667 267.6047 328.2433 15.76283631  3873
ALSAT-3B                
1 67646U 26021A   26046.77773375  .00007783  00000+0  32738-3 0  9994
2 67646  97.4717 121.2091 0012070 206.5493 153.5127 15.23610690  2381
CZ-2C R/B               
1 67647U 26021B   26046.78077197  .00014726  00000+0  44418-3 0  9998
2 67647  97.6557 121.8084 0153611  87.3790 274.5019 15.23485155  2364
STARLINK-36719          
1 67648U 26022A   26046.83334490 -.00009832  00000+0 -65168-4 0  9998
2 67648  97.2840  79.7214 0001513  78.6488  58.4011 15.75174429  3382
STARLINK-36342          
1 67649U 26022B   26046.83334490  .00009536  00000+0  64795-4 0  9993
2 67649  97.2841  79.7226 0001139  88.5873  52.4651 15.75165897  3382
STARLINK-36703          
1 67650U 26022C   26046.83334490  .00025834  00000+0  17382-3 0  9993
2 67650  97.2838  79.7246 0001658  87.2061  59.8509 15.75153285  3384
STARLINK-36696          
1 67651U 26022D   26046.83334490 -.00035040  00000+0 -23508-3 0  9993
2 67651  97.2835  79.7294 0001803  82.8232  74.2294 15.75182093  3389
